{"type": "FeatureCollection", "features": [ {"type": "Feature", "properties": {"norad_id": 36664, "name": "FENGYUN 1C DEB", "group": "fengyun-1c-debris", "lat": 47.399256961384125, "lon": -148.39473444941183, "alt_km": 771.4150445741461, "timestamp": "2025-12-23T20:42:37.364740+00:00", "meta": {"OBJECT_NAME": "FENGYUN 1C DEB", "OBJECT_ID": "1999-025DYJ", "EPOCH": "2025-12-20T07:25:54.989472", "MEAN_MOTION": 14.1795977, "ECCENTRICITY": 0.01735704, "INCLINATION": 98.6034, "RA_OF_ASC_NODE": 18.6846, "ARG_OF_PERICENTER": 78.0372, "MEAN_ANOMALY": 284.0202, "EPHEMERIS_TYPE": 0, "CLASSIFICATION_TYPE": "U", "NORAD_CAT_ID": 36664, "ELEMENT_SET_NO": 999, "REV_AT_EPOCH": 63858, "BSTAR": 7.0633235e-05, "MEAN_MOTION_DOT": 1.26e-06, "MEAN_MOTION_DDOT": 0}, "tle": {"line1": "1 36664U 99025DYJ 25354.30966423  .00000126  00000+0  70633-4 0  9993", "line2": "2 36664  98.6034  18.6846 0173570  78.0372 284.0202 14.17959770638588"}}, "geometry": {"type": "Point", "coordinates": [-148.39473444941183, 47.399256961384125]}}, {"type": "Feature", "properties": {"norad_id": 36668, "name": "FENGYUN 1C DEB", "group": "fengyun-1c-debris", "lat": 15.298000779971236, "lon": 5.480754071623212, "alt_km": 878.8669291641063, "timestamp": "2025-12-23T20:42:37.364751+00:00", "meta": {"OBJECT_NAME": "FENGYUN 1C DEB", "OBJECT_ID": "1999-025DYN", "EPOCH": "2025-12-19T06:21:32.105088", "MEAN_MOTION": 14.15409146, "ECCENTRICITY": 0.0051621, "INCLINATION": 98.6081, "RA_OF_ASC_NODE": 3.4166, "ARG_OF_PERICENTER": 206.8529, "MEAN_ANOMALY": 152.9972, "EPHEMERIS_TYPE": 0, "CLASSIFICATION_TYPE": "U", "NORAD_CAT_ID": 36668, "ELEMENT_SET_NO": 999, "REV_AT_EPOCH": 57510, "BSTAR": 0.00046927, "MEAN_MOTION_DOT": 8.85e-06, "MEAN_MOTION_DDOT": 0}, "tle": {"line1": "1 36668U 99025DYN 25353.26495492  .00000885  00000+0  46927-3 0  9994", "line2": "2 36668  98.6081   3.4166 0051621 206.8529 152.9972 14.15409146575108"}}, "geometry": {"type": "Point", "coordinates": [5.480754071623212, 15.298000779971236]}}, {"type": "Feature", "properties": {"norad_id": 36676, "name": "FENGYUN 1C DEB", "group": "fengyun-1c-debris", "lat": 53.88634472115434, "lon": 89.88628490779436, "alt_km": 681.703615344104, "timestamp": "2025-12-23T20:42:37.364761+00:00", "meta": {"OBJECT_NAME": "FENGYUN 1C DEB", "OBJECT_ID": "1999-025DYW", "EPOCH": "2025-12-12T12:03:08.237952", "MEAN_MOTION": 14.43199836, "ECCENTRICITY": 0.00955768, "INCLINATION": 98.7673, "RA_OF_ASC_NODE": 245.9859, "ARG_OF_PERICENTER": 132.3194, "MEAN_ANOMALY": 40.1509, "EPHEMERIS_TYPE": 0, "CLASSIFICATION_TYPE": "U", "NORAD_CAT_ID": 36676, "ELEMENT_SET_NO": 999, "REV_AT_EPOCH": 65062, "BSTAR": 0.00064689298, "MEAN_MOTION_DOT": 2.25e-05, "MEAN_MOTION_DDOT": 0}, "tle": {"line1": "1 36676U 99025DYW 25346.50217868  .00002250  00000+0  64689-3 0  9994", "line2": "2 36676  98.7673 245.9859 0095576 132.3194  40.1509 14.43199836650623"}}, "geometry": {"type": "Point", "coordinates": [89.88628490779436, 53.88634472115434]}}, {"type": "Feature", "properties": {"norad_id": 36678, "name": "FENGYUN 1C DEB", "group": "fengyun-1c-debris", "lat": -77.4540348554564, "lon": 20.77465908956862, "alt_km": 688.1823848263257, "timestamp": "2025-12-23T20:42:37.364771+00:00", "meta": {"OBJECT_NAME": "FENGYUN 1C DEB", "OBJECT_ID": "1999-025DYY", "EPOCH": "2025-11-26T04:26:16.761408", "MEAN_MOTION": 14.37944691, "ECCENTRICITY": 0.01523469, "INCLINATION": 98.2901, "RA_OF_ASC_NODE": 313.1233, "ARG_OF_PERICENTER": 42.409, "MEAN_ANOMALY": 318.8754, "EPHEMERIS_TYPE": 0, "CLASSIFICATION_TYPE": "U", "NORAD_CAT_ID": 36678, "ELEMENT_SET_NO": 999, "REV_AT_EPOCH": 64751, "BSTAR": 0.00045851479, "MEAN_MOTION_DOT": 1.539e-05, "MEAN_MOTION_DDOT": 0}, "tle": {"line1": "1 36678U 99025DYY 25330.18491622  .00001539  00000+0  45851-3 0  9994", "line2": "2 36678  98.2901 313.1233 0152346  42.4090 318.8754 14.37944691647514"}}, "geometry": {"type": "Point", "coordinates": [20.77465908956862, -77.4540348554564]}}, {"type": "Feature", "properties": {"norad_id": 36679, "name": "FENGYUN 1C DEB", "group": "fengyun-1c-debris", "lat": -21.164500926422853, "lon": 170.2397570834182, "alt_km": 929.6777380560343, "timestamp": "2025-12-23T20:42:37.364782+00:00", "meta": {"OBJECT_NAME": "FENGYUN 1C DEB", "OBJECT_ID": "1999-025DYZ", "EPOCH": "2025-12-12T05:06:20.489760", "MEAN_MOTION": 14.04635854, "ECCENTRICITY": 0.00860329, "INCLINATION": 98.8358, "RA_OF_ASC_NODE": 342.3526, "ARG_OF_PERICENTER": 94.9778, "MEAN_ANOMALY": 266.1218, "EPHEMERIS_TYPE": 0, "CLASSIFICATION_TYPE": "U", "NORAD_CAT_ID": 36679, "ELEMENT_SET_NO": 999, "REV_AT_EPOCH": 24541, "BSTAR": 0.00093240851, "MEAN_MOTION_DOT": 1.499e-05, "MEAN_MOTION_DDOT": 0}, "tle": {"line1": "1 36679U 99025DYZ 25346.21273715  .00001499  00000+0  93241-3 0  9998", "line2": "2 36679  98.8358 342.3526 0086032  94.9778 266.1218 14.04635854245414"}}, "geometry": {"type": "Point", "coordinates": [170.2397570834182, -21.164500926422853]}}, {"type": "Feature", "properties": {"norad_id": 36680, "name": "FENGYUN 1C DEB", "group": "fengyun-1c-debris", "lat": 7.832458643761616, "lon": -11.593322627888718, "alt_km": 949.9676227927121, "timestamp": "2025-12-23T20:42:37.364794+00:00", "meta": {"OBJECT_NAME": "FENGYUN 1C DEB", "OBJECT_ID": "1999-025DZA", "EPOCH": "2025-12-23T05:31:22.793088", "MEAN_MOTION": 14.18653532, "ECCENTRICITY": 0.01886177, "INCLINATION": 98.5484, "RA_OF_ASC_NODE": 348.9819, "ARG_OF_PERICENTER": 218.9458, "MEAN_ANOMALY": 158.0079, "EPHEMERIS_TYPE": 0, "CLASSIFICATION_TYPE": "U", "NORAD_CAT_ID": 36680, "ELEMENT_SET_NO": 999, "REV_AT_EPOCH": 64446, "BSTAR": 0.00037503164, "MEAN_MOTION_DOT": 8.83e-06, "MEAN_MOTION_DDOT": 0}, "tle": {"line1": "1 36680U 99025DZA 25357.23012492  .00000883  00000+0  37503-3 0  9992", "line2": "2 36680  98.5484 348.9819 0188617 218.9458 158.0079 14.18653532644465"}}, "geometry": {"type": "Point", "coordinates": [-11.593322627888718, 7.832458643761616]}}, {"type": "Feature", "properties": {"norad_id": 36681, "name": "FENGYUN 1C DEB", "group": "fengyun-1c-debris", "lat": -51.8449454343012, "lon": 164.8848345364182, "alt_km": 862.4733695626155, "timestamp": "2025-12-23T20:42:37.364806+00:00", "meta": {"OBJECT_NAME": "FENGYUN 1C DEB", "OBJECT_ID": "1999-025DZB", "EPOCH": "2025-12-10T18:18:12.275712", "MEAN_MOTION": 14.10256093, "ECCENTRICITY": 0.00454371, "INCLINATION": 98.6973, "RA_OF_ASC_NODE": 343.4508, "ARG_OF_PERICENTER": 355.1749, "MEAN_ANOMALY": 4.8979, "EPHEMERIS_TYPE": 0, "CLASSIFICATION_TYPE": "U", "NORAD_CAT_ID": 36681, "ELEMENT_SET_NO": 999, "REV_AT_EPOCH": 72730, "BSTAR": 0.00096687905, "MEAN_MOTION_DOT": 1.688e-05, "MEAN_MOTION_DDOT": 0}, "tle": {"line1": "1 36681U 99025DZB 25344.76264208  .00001688  00000+0  96688-3 0  9994", "line2": "2 36681  98.6973 343.4508 0045437 355.1749   4.8979 14.10256093727309"}}, "geometry": {"type": "Point", "coordinates": [164.8848345364182, -51.8449454343012]}}, {"type": "Feature", "properties": {"norad_id": 36682, "name": "FENGYUN 1C DEB", "group": "fengyun-1c-debris", "lat": -69.21570961699354, "lon": -76.46986454431523, "alt_km": 875.6663218487847, "timestamp": "2025-12-23T20:42:37.364818+00:00", "meta": {"OBJECT_NAME": "FENGYUN 1C DEB", "OBJECT_ID": "1999-025DZC", "EPOCH": "2025-12-20T22:56:56.479200", "MEAN_MOTION": 13.70152348, "ECCENTRICITY": 0.023307, "INCLINATION": 98.4859, "RA_OF_ASC_NODE": 257.8007, "ARG_OF_PERICENTER": 255.3735, "MEAN_ANOMALY": 102.147, "EPHEMERIS_TYPE": 0, "CLASSIFICATION_TYPE": "U", "NORAD_CAT_ID": 36682, "ELEMENT_SET_NO": 999, "REV_AT_EPOCH": 61505, "BSTAR": 0.00076722, "MEAN_MOTION_DOT": 7.79e-06, "MEAN_MOTION_DDOT": 0}, "tle": {"line1": "1 36682U 99025DZC 25354.95620925  .00000779  00000+0  76722-3 0  9996", "line2": "2 36682  98.4859 257.8007 0233070 255.3735 102.1470 13.70152348615050"}}, "geometry": {"type": "Point", "coordinates": [-76.46986454431523, -69.21570961699354]}}, {"type": "Feature", "properties": {"norad_id": 36684, "name": "FENGYUN 1C DEB", "group": "fengyun-1c-debris", "lat": -14.679665315727494, "lon": -90.1878621810079, "alt_km": 586.5888660307755, "timestamp": "2025-12-23T20:42:37.364829+00:00", "meta": {"OBJECT_NAME": "FENGYUN 1C DEB", "OBJECT_ID": "1999-025DZE", "EPOCH": "2025-12-21T05:17:41.042688", "MEAN_MOTION": 14.97175814, "ECCENTRICITY": 0.0018018, "INCLINATION": 99.4575, "RA_OF_ASC_NODE": 89.1224, "ARG_OF_PERICENTER": 79.4116, "MEAN_ANOMALY": 280.9129, "EPHEMERIS_TYPE": 0, "CLASSIFICATION_TYPE": "U", "NORAD_CAT_ID": 36684, "ELEMENT_SET_NO": 999, "REV_AT_EPOCH": 66028, "BSTAR": 0.003525, "MEAN_MOTION_DOT": 0.00041029, "MEAN_MOTION_DDOT": 0}, "tle": {"line1": "1 36684U 99025DZE 25355.22061392  .00041029  00000+0  35250-2 0  9999", "line2": "2 36684  99.4575  89.1224 0018018  79.4116 280.9129 14.97175814660280"}}, "geometry": {"type": "Point", "coordinates": [-90.1878621810079, -14.679665315727494]}}, {"type": "Feature", "properties": {"norad_id": 36686, "name": "FENGYUN 1C DEB", "group": "fengyun-1c-debris", "lat": 8.643338464998315, "lon": -170.83094574438704, "alt_km": 567.0496109690575, "timestamp": "2025-12-23T20:42:37.364839+00:00", "meta": {"OBJECT_NAME": "FENGYUN 1C DEB", "OBJECT_ID": "1999-025DZG", "EPOCH": "2025-12-18T18:45:25.939872", "MEAN_MOTION": 14.77277529, "ECCENTRICITY": 0.01049018, "INCLINATION": 99.0004, "RA_OF_ASC_NODE": 184.8835, "ARG_OF_PERICENTER": 34.5536, "MEAN_ANOMALY": 326.243, "EPHEMERIS_TYPE": 0, "CLASSIFICATION_TYPE": "U", "NORAD_CAT_ID": 36686, "ELEMENT_SET_NO": 999, "REV_AT_EPOCH": 65941, "BSTAR": 0.00053831047, "MEAN_MOTION_DOT": 4.115e-05, "MEAN_MOTION_DDOT": 0}, "tle": {"line1": "1 36686U 99025DZG 25352.78155023  .00004115  00000+0  53831-3 0  9995", "line2": "2 36686  99.0004 184.8835 0104901  34.5536 326.2430 14.77277529659417"}}, "geometry": {"type": "Point", "coordinates": [-170.83094574438704, 8.643338464998315]}}]}